[{"OBJECT_NAME":"STARLINK-30538","OBJECT_ID":"2023-153D","EPOCH":"2026-03-09T22:00:01.999584","MEAN_MOTION":15.27557584,"ECCENTRICITY":0.00013998,"INCLINATION":43.0008,"RA_OF_ASC_NODE":65.8341,"ARG_OF_PERICENTER":254.5795,"MEAN_ANOMALY":345.7909,"EPHEMERIS_TYPE":0,"CLASSIFICATION_TYPE":"U","NORAD_CAT_ID":57994,"ELEMENT_SET_NO":999,"REV_AT_EPOCH":578,"BSTAR":0.0018460745,"MEAN_MOTION_DOT":0.00050854,"MEAN_MOTION_DDOT":0},{"OBJECT_NAME":"OBJECT A","OBJECT_ID":"2025-013A","EPOCH":"2026-03-09T23:29:31.895232","MEAN_MOTION":15.29260221,"ECCENTRICITY":0.0010321,"INCLINATION":97.6364,"RA_OF_ASC_NODE":244.5149,"ARG_OF_PERICENTER":282.3775,"MEAN_ANOMALY":77.6309,"EPHEMERIS_TYPE":0,"CLASSIFICATION_TYPE":"U","NORAD_CAT_ID":62729,"ELEMENT_SET_NO":999,"REV_AT_EPOCH":6276,"BSTAR":0.0013206527,"MEAN_MOTION_DOT":0.00037616,"MEAN_MOTION_DDOT":0}]
